OBJECT_NAME,OBJECT_ID,EPOCH,MEAN_MOTION,ECCENTRICITY,INCLINATION,RA_OF_ASC_NODE,ARG_OF_PERICENTER,MEAN_ANOMALY,EPHEMERIS_TYPE,CLASSIFICATION_TYPE,NORAD_CAT_ID,ELEMENT_SET_NO,REV_AT_EPOCH,BSTAR,MEAN_MOTION_DOT,MEAN_MOTION_DDOT
STARLINK-37656,2026-143A,2026-07-21T13:06:57.684672,15.49224521,.00003205,97.2878,246.4930,352.4942,7.6305,0,U,69649,999,586,.91440356E-3,.50019E-3,0
STARLINK-37646,2026-143B,2026-07-21T14:00:01.999872,15.33362275,.00017196,97.2850,246.6415,118.3387,348.1150,0,U,69650,999,598,.22419593E-2,.72816E-3,0
STARLINK-37749,2026-143C,2026-07-21T14:00:01.999872,15.38660288,.00019611,97.2847,246.6736,89.1775,93.2340,0,U,69651,999,598,-.61290658E-1,-.2073613E-1,0
STARLINK-37819,2026-143D,2026-07-21T14:00:01.999872,15.35686849,.00022532,97.2850,246.6016,113.4009,261.8373,0,U,69652,999,598,-.10046801E+0,-.3059827E-1,0
STARLINK-37729,2026-143E,2026-07-21T14:00:01.999872,15.55359272,.00018282,97.2860,247.2746,82.4389,68.1327,0,U,69653,999,598,-.39025108E-1,-.2325937E-1,0
STARLINK-37838,2026-143F,2026-07-21T14:00:01.999872,15.37329208,.00022012,97.2844,246.6999,154.4782,82.9168,0,U,69654,999,598,-.94132143E-1,-.3027872E-1,0
STARLINK-37884,2026-143G,2026-07-21T14:00:01.999872,15.36960564,.000177,97.2856,246.5735,103.6233,205.9346,0,U,69655,999,598,.19381636E-2,.70542E-3,0
STARLINK-37876,2026-143H,2026-07-21T14:00:01.999872,15.36950494,.00009925,97.2850,246.6523,97.8971,37.5551,0,U,69656,999,588,.17396348E-2,.63226E-3,0
STARLINK-37784,2026-143J,2026-07-21T13:21:39.697344,15.49221901,.0000195,97.2851,246.6295,66.7782,293.3490,0,U,69657,999,580,.85213833E-3,.46582E-3,0
STARLINK-37851,2026-143K,2026-07-21T14:00:01.999872,15.36948351,.00012817,97.2855,246.6743,90.5585,97.8199,0,U,69658,999,587,.19116245E-2,.69538E-3,0
STARLINK-37229,2026-143L,2026-07-21T14:00:01.999872,15.33413031,.00017125,97.2854,246.5964,94.1283,267.3055,0,U,69659,999,592,.21051395E-2,.68437E-3,0
STARLINK-37556,2026-143M,2026-07-21T14:00:01.999872,15.33412398,.00013197,97.2852,246.5760,104.3260,212.1353,0,U,69660,999,592,.1890447E-2,.61391E-3,0
STARLINK-37867,2026-143N,2026-07-21T14:00:01.999872,15.33417102,.00012647,97.2853,246.6096,75.4066,316.0498,0,U,69661,999,588,.18271709E-2,.59326E-3,0
STARLINK-37852,2026-143P,2026-07-21T14:00:01.999872,15.36949790,.00011935,97.2849,246.6105,65.8072,341.2209,0,U,69662,999,588,.1688926E-2,.61365E-3,0
STARLINK-37554,2026-143Q,2026-07-21T02:53:39.166944,15.36986181,.00006388,97.2846,246.1512,71.0273,289.1040,0,U,69663,999,574,.32421853E-3,.11654E-3,0
STARLINK-37830,2026-143R,2026-07-21T14:00:01.999872,15.33380616,.00015558,97.2852,246.5870,72.8597,273.5486,0,U,69664,999,587,.20893887E-2,.6785E-3,0
STARLINK-37837,2026-143S,2026-07-19T02:46:06.517344,15.36985958,.00005727,97.2825,244.1348,75.1318,284.9990,0,U,69665,999,542,.44704564E-3,.16108E-3,0
STARLINK-37943,2026-143T,2026-07-21T14:00:01.999872,15.36932274,.00006076,97.2855,246.6334,48.2170,33.6607,0,U,69666,999,588,.42420977E-2,.156098E-2,0
STARLINK-37941,2026-143U,2026-07-21T14:00:01.999872,15.36970092,.00015404,97.2853,246.6371,60.3389,43.1949,0,U,69667,999,588,.16672946E-2,.60612E-3,0
STARLINK-37930,2026-143V,2026-07-21T14:00:01.999872,15.36958958,.00010706,97.2851,246.6403,82.7219,28.7949,0,U,69668,999,587,.16644686E-2,.60485E-3,0
STARLINK-37945,2026-143W,2026-07-21T14:00:01.999872,15.33401730,.00009872,97.2849,246.6678,99.5752,66.8863,0,U,69669,999,588,.18057969E-2,.58597E-3,0
STARLINK-37948,2026-143X,2026-07-21T13:47:55.853664,15.49190524,.00000881,97.2859,246.6079,61.4966,298.6294,0,U,69670,999,580,.13169358E-2,.72197E-3,0
STARLINK-37949,2026-143Y,2026-07-21T14:00:01.999872,15.45269663,.00018656,97.2845,246.6730,84.6721,93.1913,0,U,69671,999,588,-.5401241E-1,-.2256065E-1,0
STARLINK-37946,2026-143Z,2026-07-21T14:00:01.999872,15.36928985,.00011133,97.2853,246.6866,89.2571,124.9683,0,U,69672,999,588,.18434905E-2,.66992E-3,0
TJS-26A,2026-144A,2026-07-20T06:47:45.824064,1.00271367,.00040251,6.9413,323.2321,350.0449,194.2716,0,U,69674,999,27,0,-.35E-5,0
STARLINK-38005,2026-145A,2026-07-21T14:22:51.009600,15.65787759,.00006852,97.2844,49.7323,66.9134,293.2198,0,U,69677,999,418,-.22386932E-2,-.220234E-2,0
STARLINK-38009,2026-145B,2026-07-21T14:00:01.999872,15.66614612,.00016477,97.2843,49.7265,86.9404,204.9571,0,U,69678,999,545,-.25518578E-1,-.2348378E-1,0
STARLINK-37998,2026-145C,2026-07-21T14:00:01.999872,15.74448923,.00019363,97.2841,49.7438,108.7400,220.7409,0,U,69679,999,545,-.57430528E-2,-.759789E-2,0
STARLINK-37994,2026-145D,2026-07-21T14:00:01.999872,15.65328587,.0001637,97.2842,49.7242,91.9786,196.9356,0,U,69680,999,545,-.28278202E-1,-.245543E-1,0
