STARLINK-37656          
1 69649U 26143A   26202.54650098  .00050019  00000+0  91440-3 0  9994
2 69649  97.2878 246.4930 0000320 352.4942   7.6305 15.49224521  5864
STARLINK-37646          
1 69650U 26143B   26202.58335648  .00072816  00000+0  22420-2 0  9991
2 69650  97.2850 246.6415 0001719 118.3387 348.1150 15.33362275  5987
STARLINK-37749          
1 69651U 26143C   26202.58335648 -.02073613  00000+0 -61291-1 0  9990
2 69651  97.2847 246.6736 0001961  89.1775  93.2340 15.38660288  5984
STARLINK-37819          
1 69652U 26143D   26202.58335648 -.03059827  00000+0 -10047+0 0  9994
2 69652  97.2850 246.6016 0002253 113.4009 261.8373 15.35686849  5983
STARLINK-37729          
1 69653U 26143E   26202.58335648 -.02325937  00000+0 -39025-1 0  9991
2 69653  97.2860 247.2746 0001828  82.4389  68.1327 15.55359272  5981
STARLINK-37838          
1 69654U 26143F   26202.58335648 -.03027872  00000+0 -94132-1 0  9990
2 69654  97.2844 246.6999 0002201 154.4782  82.9168 15.37329208  5983
STARLINK-37884          
1 69655U 26143G   26202.58335648  .00070542  00000+0  19382-2 0  9993
2 69655  97.2856 246.5735 0001770 103.6233 205.9346 15.36960564  5981
STARLINK-37876          
1 69656U 26143H   26202.58335648  .00063226  00000+0  17396-2 0  9998
2 69656  97.2850 246.6523 0000992  97.8971  37.5551 15.36950494  5887
STARLINK-37784          
1 69657U 26143J   26202.55670946  .00046582  00000+0  85214-3 0  9990
2 69657  97.2851 246.6295 0000195  66.7782 293.3490 15.49221901  5809
STARLINK-37851          
1 69658U 26143K   26202.58335648  .00069538  00000+0  19116-2 0  9994
2 69658  97.2855 246.6743 0001281  90.5585  97.8199 15.36948351  5876
STARLINK-37229          
1 69659U 26143L   26202.58335648  .00068437  00000+0  21051-2 0  9993
2 69659  97.2854 246.5964 0001712  94.1283 267.3055 15.33413031  5924
STARLINK-37556          
1 69660U 26143M   26202.58335648  .00061391  00000+0  18904-2 0  9990
2 69660  97.2852 246.5760 0001319 104.3260 212.1353 15.33412398  5924
STARLINK-37867          
1 69661U 26143N   26202.58335648  .00059326  00000+0  18272-2 0  9994
2 69661  97.2853 246.6096 0001264  75.4066 316.0498 15.33417102  5887
STARLINK-37852          
1 69662U 26143P   26202.58335648  .00061365  00000+0  16889-2 0  9993
2 69662  97.2849 246.6105 0001193  65.8072 341.2209 15.36949790  5881
STARLINK-37554          
1 69663U 26143Q   26202.12059221  .00011654  00000+0  32422-3 0  9992
2 69663  97.2846 246.1512 0000638  71.0273 289.1040 15.36986181  5744
STARLINK-37830          
1 69664U 26143R   26202.58335648  .00067850  00000+0  20894-2 0  9991
2 69664  97.2852 246.5870 0001555  72.8597 273.5486 15.33380616  5873
STARLINK-37837          
1 69665U 26143S   26200.11535321  .00016108  00000+0  44705-3 0  9997
2 69665  97.2825 244.1348 0000572  75.1318 284.9990 15.36985958  5423
STARLINK-37943          
1 69666U 26143T   26202.58335648  .00156098  00000+0  42421-2 0  9996
2 69666  97.2855 246.6334 0000607  48.2170  33.6607 15.36932274  5882
STARLINK-37941          
1 69667U 26143U   26202.58335648  .00060612  00000+0  16673-2 0  9993
2 69667  97.2853 246.6371 0001540  60.3389  43.1949 15.36970092  5881
STARLINK-37930          
1 69668U 26143V   26202.58335648  .00060485  00000+0  16645-2 0  9991
2 69668  97.2851 246.6403 0001070  82.7219  28.7949 15.36958958  5879
STARLINK-37945          
1 69669U 26143W   26202.58335648  .00058597  00000+0  18058-2 0  9993
2 69669  97.2849 246.6678 0000987  99.5752  66.8863 15.33401730  5882
STARLINK-37948          
1 69670U 26143X   26202.57495201  .00072197  00000+0  13169-2 0  9996
2 69670  97.2859 246.6079 0000088  61.4966 298.6294 15.49190524  5805
STARLINK-37949          
1 69671U 26143Y   26202.58335648 -.02256065  00000+0 -54012-1 0  9999
2 69671  97.2845 246.6730 0001865  84.6721  93.1913 15.45269663  5886
STARLINK-37946          
1 69672U 26143Z   26202.58335648  .00066992  00000+0  18435-2 0  9994
2 69672  97.2853 246.6866 0001113  89.2571 124.9683 15.36928985  5882
TJS-26A                 
1 69674U 26144A   26201.28316926 -.00000350  00000+0  00000+0 0  9994
2 69674   6.9413 323.2321 0004025 350.0449 194.2716  1.00271367   275
STARLINK-38005          
1 69677U 26145A   26202.59920150 -.00220234  00000+0 -22387-2 0  9994
2 69677  97.2844  49.7323 0000685  66.9134 293.2198 15.65787759  4184
STARLINK-38009          
1 69678U 26145B   26202.58335648 -.02348378  00000+0 -25519-1 0  9997
2 69678  97.2843  49.7265 0001647  86.9404 204.9571 15.66614612  5453
STARLINK-37998          
1 69679U 26145C   26202.58335648 -.00759789  00000+0 -57431-2 0  9997
2 69679  97.2841  49.7438 0001936 108.7400 220.7409 15.74448923  5459
STARLINK-37994          
1 69680U 26145D   26202.58335648 -.02455430  00000+0 -28278-1 0  9993
2 69680  97.2842  49.7242 0001637  91.9786 196.9356 15.65328587  5451
